start=new Date('2023-04-27T00:00:00.000Z').valueOf();
sats=[{"ELEMENT_SET_NO":"999","MEAN_ELEMENT_THEORY":"SGP4","ARG_OF_PERICENTER":"106.9869","DECAY_DATE":null,"SEMIMAJOR_AXIS":"6917.952","CLASSIFICATION_TYPE":"U","SITE":"AFETR","PERIAPSIS":"539.058","LAUNCH_DATE":"2022-10-20","TIME_SYSTEM":"UTC","EPOCH":"2023-04-26T16:54:11.579616","MEAN_ANOMALY":"253.1244","MEAN_MOTION":"15.08816632","OBJECT_ID":"2022-136H","CENTER_NAME":"EARTH","PERIOD":"95.439","COUNTRY_CODE":"US","MEAN_MOTION_DOT":"-0.00004493","REF_FRAME":"TEME","MEAN_MOTION_DDOT":"0.0000000000000","GP_ID":"230801934","RCS_SIZE":"LARGE","BSTAR":"-0.00026454000000","RA_OF_ASC_NODE":"8.7221","INCLINATION":"53.2166","TLE_LINE2":"2 54058  53.2166   8.7221 0001097 106.9869 253.1244 15.08816632 28633","REV_AT_EPOCH":"2863","NORAD_CAT_ID":"54058","APOAPSIS":"540.576","ECCENTRICITY":"0.00010970","EPHEMERIS_TYPE":"0","FILE":"3894261","OBJECT_TYPE":"PAYLOAD","TLE_LINE1":"1 54058U 22136H   23116.70430069 -.00004493  00000-0 -26454-3 0  9994","OBJECT_NAME":"STARLINK-5167"},{"EPOCH":"2023-04-26T04:16:25.188384","MEAN_MOTION":"15.08786856","MEAN_ANOMALY":"273.7632","OBJECT_ID":"2022-136J","CENTER_NAME":"EARTH","COUNTRY_CODE":"US","PERIOD":"95.441","REF_FRAME":"TEME","MEAN_MOTION_DOT":"-0.00016707","ELEMENT_SET_NO":"999","MEAN_ELEMENT_THEORY":"SGP4","SEMIMAJOR_AXIS":"6918.043","ARG_OF_PERICENTER":"86.3464","DECAY_DATE":null,"CLASSIFICATION_TYPE":"U","PERIAPSIS":"539.279","SITE":"AFETR","LAUNCH_DATE":"2022-10-20","TIME_SYSTEM":"UTC","NORAD_CAT_ID":"54059","REV_AT_EPOCH":"2855","EPHEMERIS_TYPE":"0","APOAPSIS":"540.537","ECCENTRICITY":"0.00009090","FILE":"3894260","OBJECT_TYPE":"PAYLOAD","TLE_LINE1":"1 54059U 22136J   23116.17806931 -.00016707  00000-0 -10356-2 0  9995","OBJECT_NAME":"STARLINK-5173","MEAN_MOTION_DDOT":"0.0000000000000","RCS_SIZE":"LARGE","GP_ID":"230774679","BSTAR":"-0.00103560000000","RA_OF_ASC_NODE":"11.1238","TLE_LINE2":"2 54059  53.2168  11.1238 0000909  86.3464 273.7632 15.08786856 28559","INCLINATION":"53.2168"},{"TLE_LINE1":"1 54060U 22136K   23116.60871340 -.00003308  00000-0 -18999-3 0  9996","OBJECT_NAME":"STARLINK-5169","EPHEMERIS_TYPE":"0","ECCENTRICITY":"0.00012920","APOAPSIS":"540.716","FILE":"3894260","OBJECT_TYPE":"PAYLOAD","NORAD_CAT_ID":"54060","REV_AT_EPOCH":"2903","RA_OF_ASC_NODE":"339.5744","TLE_LINE2":"2 54060  53.2179 339.5744 0001292 133.8198 226.2901 15.08814994 29031","INCLINATION":"53.2179","BSTAR":"-0.00018999000000","MEAN_MOTION_DDOT":"0.0000000000000","RCS_SIZE":"LARGE","GP_ID":"230774929","REF_FRAME":"TEME","MEAN_MOTION_DOT":"-0.00003308","CENTER_NAME":"EARTH","PERIOD":"95.439","COUNTRY_CODE":"US","OBJECT_ID":"2022-136K","EPOCH":"2023-04-26T14:36:32.837760","MEAN_MOTION":"15.08814994","MEAN_ANOMALY":"226.2901","TIME_SYSTEM":"UTC","PERIAPSIS":"538.928","SITE":"AFETR","LAUNCH_DATE":"2022-10-20","SEMIMAJOR_AXIS":"6917.957","DECAY_DATE":null,"ARG_OF_PERICENTER":"133.8198","CLASSIFICATION_TYPE":"U","ELEMENT_SET_NO":"999","MEAN_ELEMENT_THEORY":"SGP4"},{"INCLINATION":"53.2170","TLE_LINE2":"2 54061  53.2170 332.5948 0001016  72.8264 287.2840 15.08798835 29159","RA_OF_ASC_NODE":"332.5948","GP_ID":"230802687","RCS_SIZE":"LARGE","MEAN_MOTION_DDOT":"0.0000000000000","BSTAR":"-0.00034682000000","OBJECT_TYPE":"PAYLOAD","FILE":"3894261","ECCENTRICITY":"0.00010160","APOAPSIS":"540.574","EPHEMERIS_TYPE":"0","OBJECT_NAME":"STARLINK-5209","TLE_LINE1":"1 54061U 22136L   23116.86385727 -.00005797  00000-0 -34682-3 0  9995","REV_AT_EPOCH":"2915","NORAD_CAT_ID":"54061","LAUNCH_DATE":"2022-10-20","SITE":"AFETR","PERIAPSIS":"539.168","TIME_SYSTEM":"UTC","MEAN_ELEMENT_THEORY":"SGP4","ELEMENT_SET_NO":"999","CLASSIFICATION_TYPE":"U","ARG_OF_PERICENTER":"72.8264","DECAY_DATE":null,"SEMIMAJOR_AXIS":"6918.006","PERIOD":"95.440","COUNTRY_CODE":"US","CENTER_NAME":"EARTH","MEAN_MOTION_DOT":"-0.00005797","REF_FRAME":"TEME","MEAN_ANOMALY":"287.2840","MEAN_MOTION":"15.08798835","EPOCH":"2023-04-26T20:43:57.268128","OBJECT_ID":"2022-136L"},{"OBJECT_ID":"2022-136M","EPOCH":"2023-04-26T16:48:54.686880","MEAN_MOTION":"15.08802422","MEAN_ANOMALY":"302.0458","REF_FRAME":"TEME","MEAN_MOTION_DOT":"0.00012128","CENTER_NAME":"EARTH","COUNTRY_CODE":"US","PERIOD":"95.440","SEMIMAJOR_AXIS":"6917.995","DECAY_DATE":null,"ARG_OF_PERICENTER":"58.0660","CLASSIFICATION_TYPE":"U","ELEMENT_SET_NO":"999","MEAN_ELEMENT_THEORY":"SGP4","TIME_SYSTEM":"UTC","PERIAPSIS":"538.969","SITE":"AFETR","LAUNCH_DATE":"2022-10-20","NORAD_CAT_ID":"54062","REV_AT_EPOCH":"2863","TLE_LINE1":"1 54062U 22136M   23116.70063295  .00012128  00000-0  77960-3 0  9992","OBJECT_NAME":"STARLINK-5170","EPHEMERIS_TYPE":"0","APOAPSIS":"540.751","ECCENTRICITY":"0.00012880","FILE":"3894261","OBJECT_TYPE":"PAYLOAD","BSTAR":"0.00077960000000","MEAN_MOTION_DDOT":"0.0000000000000","RCS_SIZE":"LARGE","GP_ID":"230801435","RA_OF_ASC_NODE":"8.6972","TLE_LINE2":"2 54062  53.2167   8.6972 0001288  58.0660 302.0458 15.08802422 28632","INCLINATION":"53.2167"},{"NORAD_CAT_ID":"54063","REV_AT_EPOCH":"2863","TLE_LINE1":"1 54063U 22136N   23116.69692604 -.00003375  00000-0 -19409-3 0  9993","OBJECT_NAME":"STARLINK-5225","EPHEMERIS_TYPE":"0","ECCENTRICITY":"0.00014170","APOAPSIS":"540.745","FILE":"3894261","OBJECT_TYPE":"PAYLOAD","BSTAR":"-0.00019409000000","MEAN_MOTION_DDOT":"0.0000000000000","RCS_SIZE":"LARGE","GP_ID":"230801685","RA_OF_ASC_NODE":"8.6755","TLE_LINE2":"2 54063  53.2181   8.6755 0001417  85.3049 274.8105 15.08833530 28635","INCLINATION":"53.2181","OBJECT_ID":"2022-136N","EPOCH":"2023-04-26T16:43:34.409856","MEAN_MOTION":"15.08833530","MEAN_ANOMALY":"274.8105","REF_FRAME":"TEME","MEAN_MOTION_DOT":"-0.00003375","CENTER_NAME":"EARTH","COUNTRY_CODE":"US","PERIOD":"95.438","SEMIMAJOR_AXIS":"6917.900","ARG_OF_PERICENTER":"85.3049","DECAY_DATE":null,"CLASSIFICATION_TYPE":"U","ELEMENT_SET_NO":"999","MEAN_ELEMENT_THEORY":"SGP4","TIME_SYSTEM":"UTC","PERIAPSIS":"538.785","SITE":"AFETR","LAUNCH_DATE":"2022-10-20"},{"COUNTRY_CODE":"US","PERIOD":"95.437","CENTER_NAME":"EARTH","REF_FRAME":"TEME","MEAN_MOTION_DOT":"-0.00003141","MEAN_MOTION":"15.08841836","MEAN_ANOMALY":"246.2481","EPOCH":"2023-04-26T16:21:45.861984","OBJECT_ID":"2022-136P","LAUNCH_DATE":"2022-10-20","PERIAPSIS":"539.161","SITE":"AFETR","TIME_SYSTEM":"UTC","MEAN_ELEMENT_THEORY":"SGP4","ELEMENT_SET_NO":"999","CLASSIFICATION_TYPE":"U","SEMIMAJOR_AXIS":"6917.875","ARG_OF_PERICENTER":"113.8599","DECAY_DATE":null,"FILE":"3894261","OBJECT_TYPE":"PAYLOAD","EPHEMERIS_TYPE":"0","ECCENTRICITY":"0.00008370","APOAPSIS":"540.319","OBJECT_NAME":"STARLINK-5172","TLE_LINE1":"1 54064U 22136P   23116.68178081 -.00003141  00000-0 -17932-3 0  9991","NORAD_CAT_ID":"54064","REV_AT_EPOCH":"2926","TLE_LINE2":"2 54064  53.2199 323.6517 0000837 113.8599 246.2481 15.08841836 29261","INCLINATION":"53.2199","RA_OF_ASC_NODE":"323.6517","RCS_SIZE":"LARGE","GP_ID":"230802936","MEAN_MOTION_DDOT":"0.0000000000000","BSTAR":"-0.00017932000000"},{"PERIAPSIS":"538.896","SITE":"AFETR","LAUNCH_DATE":"2022-10-20","TIME_SYSTEM":"UTC","ELEMENT_SET_NO":"999","MEAN_ELEMENT_THEORY":"SGP4","SEMIMAJOR_AXIS":"6917.817","DECAY_DATE":null,"ARG_OF_PERICENTER":"113.4311","CLASSIFICATION_TYPE":"U","CENTER_NAME":"EARTH","COUNTRY_CODE":"US","PERIOD":"95.436","REF_FRAME":"TEME","MEAN_MOTION_DOT":"-0.00004545","EPOCH":"2023-04-26T21:19:06.683520","MEAN_MOTION":"15.08860832","MEAN_ANOMALY":"246.6800","OBJECT_ID":"2022-136Q","RA_OF_ASC_NODE":"7.7403","TLE_LINE2":"2 54065  53.2180   7.7403 0001136 113.4311 246.6800 15.08860832 28666","INCLINATION":"53.2180","MEAN_MOTION_DDOT":"0.0000000000000","RCS_SIZE":"LARGE","GP_ID":"230803187","BSTAR":"-0.00026748000000","EPHEMERIS_TYPE":"0","APOAPSIS":"540.468","ECCENTRICITY":"0.00011360","FILE":"3894261","OBJECT_TYPE":"PAYLOAD","TLE_LINE1":"1 54065U 22136Q   23116.88827180 -.00004545  00000-0 -26748-3 0  9999","OBJECT_NAME":"STARLINK-5187","NORAD_CAT_ID":"54065","REV_AT_EPOCH":"2866"},{"REV_AT_EPOCH":"2867","NORAD_CAT_ID":"54066","ECCENTRICITY":"0.00013240","APOAPSIS":"540.792","EPHEMERIS_TYPE":"0","OBJECT_TYPE":"PAYLOAD","FILE":"3894261","TLE_LINE1":"1 54066U 22136R   23116.95822528  .00033580  00000-0  21204-2 0  9999","OBJECT_NAME":"STARLINK-5151","MEAN_MOTION_DDOT":"0.0000000000000","GP_ID":"230801935","RCS_SIZE":"LARGE","BSTAR":"0.00212040000000","RA_OF_ASC_NODE":"7.4645","INCLINATION":"53.2164","TLE_LINE2":"2 54066  53.2164   7.4645 0001324  84.8005 275.3138 15.08797163 28674","EPOCH":"2023-04-26T22:59:50.664192","MEAN_ANOMALY":"275.3138","MEAN_MOTION":"15.08797163","OBJECT_ID":"2022-136R","CENTER_NAME":"EARTH","COUNTRY_CODE":"US","PERIOD":"95.440","MEAN_MOTION_DOT":"0.00033580","REF_FRAME":"TEME","ELEMENT_SET_NO":"999","MEAN_ELEMENT_THEORY":"SGP4","ARG_OF_PERICENTER":"84.8005","DECAY_DATE":null,"SEMIMAJOR_AXIS":"6918.011","CLASSIFICATION_TYPE":"U","SITE":"AFETR","PERIAPSIS":"538.960","LAUNCH_DATE":"2022-10-20","TIME_SYSTEM":"UTC"},{"BSTAR":"-0.00143400000000","GP_ID":"230774680","RCS_SIZE":"LARGE","MEAN_MOTION_DDOT":"0.0000000000000","INCLINATION":"53.2172","TLE_LINE2":"2 54067  53.2172  11.5593 0000813 110.6822 249.4257 15.08778090 28536","RA_OF_ASC_NODE":"11.5593","REV_AT_EPOCH":"2853","NORAD_CAT_ID":"54067","OBJECT_NAME":"STARLINK-5174","TLE_LINE1":"1 54067U 22136S   23116.01978735 -.00022998  00000-0 -14340-2 0  9995","FILE":"3894260","OBJECT_TYPE":"PAYLOAD","ECCENTRICITY":"0.00008130","APOAPSIS":"540.497","EPHEMERIS_TYPE":"0","CLASSIFICATION_TYPE":"U","DECAY_DATE":null,"ARG_OF_PERICENTER":"110.6822","SEMIMAJOR_AXIS":"6918.070","MEAN_ELEMENT_THEORY":"SGP4","ELEMENT_SET_NO":"999","TIME_SYSTEM":"UTC","LAUNCH_DATE":"2022-10-20","SITE":"AFETR","PERIAPSIS":"539.372","OBJECT_ID":"2022-136S","MEAN_ANOMALY":"249.4257","MEAN_MOTION":"15.08778090","EPOCH":"2023-04-26T00:28:29.627040","MEAN_MOTION_DOT":"-0.00022998","REF_FRAME":"TEME","PERIOD":"95.441","COUNTRY_CODE":"US","CENTER_NAME":"EARTH"}];
